[{"OBJECT_NAME":"STARLINK-32866","OBJECT_ID":"2025-022E","EPOCH":"2026-03-09T13:22:59.491200","MEAN_MOTION":15.30186452,"ECCENTRICITY":0.0001504,"INCLINATION":53.1607,"RA_OF_ASC_NODE":129.9608,"ARG_OF_PERICENTER":64.071,"MEAN_ANOMALY":296.0446,"EPHEMERIS_TYPE":0,"CLASSIFICATION_TYPE":"U","NORAD_CAT_ID":62858,"ELEMENT_SET_NO":999,"REV_AT_EPOCH":6188,"BSTAR":0.00086531,"MEAN_MOTION_DOT":0.00025346,"MEAN_MOTION_DDOT":0},{"OBJECT_NAME":"AIST-2 (RS43)","OBJECT_ID":"2013-015D","EPOCH":"2026-03-09T22:52:25.813056","MEAN_MOTION":15.25079544,"ECCENTRICITY":0.00239979,"INCLINATION":64.8687,"RA_OF_ASC_NODE":221.5348,"ARG_OF_PERICENTER":248.8384,"MEAN_ANOMALY":111.0181,"EPHEMERIS_TYPE":0,"CLASSIFICATION_TYPE":"U","NORAD_CAT_ID":39133,"ELEMENT_SET_NO":999,"REV_AT_EPOCH":70876,"BSTAR":0.00037899099,"MEAN_MOTION_DOT":9.402e-5,"MEAN_MOTION_DDOT":0}]
